GLOBALSTAR M075         
1 37192U 10054E   25358.21427079 -.00000088  00000+0  85706-4 0  9993
2 37192  52.0022 322.9423 0000480 109.7567 352.3949 12.62261317699849
GLOBALSTAR M073         
1 37193U 10054F   26003.80579369 -.00000082  00000+0  12333-3 0  9996
2 37193  52.0035 204.6729 0001200  74.3148 298.5908 12.62268804703178
GLOBALSTAR M083         
1 37739U 11033A   26003.84951620 -.00000109  00000+0 -29322-4 0  9996
2 37739  51.9839 152.9910 0000952  87.9736  65.6157 12.62266338672193
GLOBALSTAR M088         
1 37740U 11033B   26004.19398167 -.00000082  00000+0  11931-3 0  9993
2 37740  52.0234  57.9729 0000473 134.6966 264.4341 12.62271319667789
GLOBALSTAR M091         
1 37741U 11033C   26004.21609316 -.00000094  00000+0  55574-4 0  9993
2 37741  52.0021  21.1147 0000100  94.8815 343.8963 12.62268401668576
GLOBALSTAR M085         
1 37742U 11033D   26004.29711019 -.00000089  00000+0  83989-4 0  9991
2 37742  52.0150 332.0168 0000393  20.0566 127.6623 12.62267682669094
GLOBALSTAR M081         
1 37743U 11033E   25351.59018587 -.00000087  00000+0  92331-4 0  9998
2 37743  51.9980  28.5496 0000222  94.7932  71.3857 12.62270971667009
GLOBALSTAR M089         
1 37744U 11033F   26004.20825057 -.00000059  00000+0  24711-3 0  9996
2 37744  51.9943 289.1006 0000867  75.4415  89.1634 12.62263252670073
